STARLINK-36310
1 68244U 26101.61975694  1.40558-3 7.24744-4 0 0                     
2 68244  53.1569 147.5285 0002178  40.9134 319.2052 15.80732826      
STARLINK-36247
1 68245U 26103.25002315  1.59858-3 1.05345-3 0 0                     
2 68245  53.1595 139.4482 0001182  95.4475 142.8021 15.75346692      
STARLINK-37043
1 68246U 26103.00002315  2.61403-3 1.66118-3 0 0                     
2 68246  53.1597 140.7925 0001089 100.5681 107.6358 15.75184442      
STARLINK-37044
1 68247U 26103.10417824  2.04461-3 1.29830-3 0 0                     
2 68247  53.1601 140.4452 0002100 318.7424  41.3437 15.75373711      
STARLINK-36997
1 68248U 26103.25376157  1.24097-3 8.01019-4 0 0                     
2 68248  53.1582 139.9624 0000871  46.8543 313.2550 15.75263743      
STARLINK-37141
1 68249U 26102.41535880  1.52972-3 9.84514-4 0 0                     
2 68249  53.1584 143.9711 0002495  30.4436 329.6729 15.75228332      
STARLINK-37087
1 68250U 26103.11811343  4.49772-3 2.75424-3 0 0                     
2 68250  53.1559 140.5343 0001834 120.8067 239.3134 15.75494786      
STARLINK-36274
1 68251U 26103.24954861  1.03078-3 6.67726-4 0 0                     
2 68251  53.1568 139.9329 0001115  48.8400 311.2716 15.75262954      
STARLINK-37085
1 68252U 26103.25002315  1.00108-3 6.55307-4 0 0                     
2 68252  53.1593 139.3414 0000995  77.3303 212.3918 15.75285010      
STARLINK-37086
1 68253U 26103.25002315  1.31649-3 8.66132-4 0 0                     
2 68253  53.1596 139.3948 0001176  89.3583 174.6262 15.75289058      
STARLINK-37084
1 68254U 26103.25002315  1.22883-3 8.07432-4 0 0                     
2 68254  53.1592 139.5570 0001168 104.1651  80.7225 15.75286655      
STARLINK-37075
1 68255U 26103.25002315  1.70494-2 1.18346-2 0 0                     
2 68255  53.1597 139.2902 0001187  97.9561 216.6581 15.76620267      
STARLINK-36333
1 68256U 26103.00002315  2.38800-3 1.52255-3 0 0                     
2 68256  53.1594 140.6901 0000979  95.8475 162.0328 15.75175912      
STARLINK-36745
1 68257U 26103.11357639  2.82752-3 1.77706-3 0 0                     
2 68257  53.1571 140.5040 0001773 130.6001 229.5174 15.75376096      
STARLINK-36890
1 68258U 26103.56902778  1.97171-3 9.76480-4 0 0                     
2 68258  53.1575 137.6343 0001156 115.0300 245.0843 15.80948127      
STARLINK-36323
1 68259U 26103.28543981  1.66229-3 1.06695-3 0 0                     
2 68259  53.1588 139.4356 0001291  43.3853 316.7269 15.75248139      
