[{"OBJECT_NAME":"STARLINK-36310","OBJECT_ID":"2026-054N","EPOCH":"2026-04-11T14:52:27.087744","MEAN_MOTION":15.80732826,"ECCENTRICITY":0.00021785,"INCLINATION":53.1569,"RA_OF_ASC_NODE":147.5285,"ARG_OF_PERICENTER":40.9134,"MEAN_ANOMALY":319.2052,"EPHEMERIS_TYPE":0,"CLASSIFICATION_TYPE":"U","NORAD_CAT_ID":68244,"ELEMENT_SET_NO":999,"REV_AT_EPOCH":398,"BSTAR":-0.00072474429,"MEAN_MOTION_DOT":-0.00140558,"MEAN_MOTION_DDOT":0},{"OBJECT_NAME":"STARLINK-36247","OBJECT_ID":"2026-054P","EPOCH":"2026-04-13T06:00:02.000160","MEAN_MOTION":15.75346692,"ECCENTRICITY":0.00011822,"INCLINATION":53.1595,"RA_OF_ASC_NODE":139.4482,"ARG_OF_PERICENTER":95.4475,"MEAN_ANOMALY":142.8021,"EPHEMERIS_TYPE":0,"CLASSIFICATION_TYPE":"U","NORAD_CAT_ID":68245,"ELEMENT_SET_NO":999,"REV_AT_EPOCH":550,"BSTAR":-0.0010534506,"MEAN_MOTION_DOT":-0.00159858,"MEAN_MOTION_DDOT":0},{"OBJECT_NAME":"STARLINK-37043","OBJECT_ID":"2026-054Q","EPOCH":"2026-04-13T00:00:02.000160","MEAN_MOTION":15.75184442,"ECCENTRICITY":0.00010893,"INCLINATION":53.1597,"RA_OF_ASC_NODE":140.7925,"ARG_OF_PERICENTER":100.5681,"MEAN_ANOMALY":107.6358,"EPHEMERIS_TYPE":0,"CLASSIFICATION_TYPE":"U","NORAD_CAT_ID":68246,"ELEMENT_SET_NO":999,"REV_AT_EPOCH":542,"BSTAR":0.0016611754,"MEAN_MOTION_DOT":0.00261403,"MEAN_MOTION_DDOT":0},{"OBJECT_NAME":"STARLINK-37044","OBJECT_ID":"2026-054R","EPOCH":"2026-04-13T02:30:01.341216","MEAN_MOTION":15.75373711,"ECCENTRICITY":0.00021,"INCLINATION":53.1601,"RA_OF_ASC_NODE":140.4452,"ARG_OF_PERICENTER":318.7424,"MEAN_ANOMALY":41.3437,"EPHEMERIS_TYPE":0,"CLASSIFICATION_TYPE":"U","NORAD_CAT_ID":68247,"ELEMENT_SET_NO":999,"REV_AT_EPOCH":421,"BSTAR":0.0012982986,"MEAN_MOTION_DOT":0.00204461,"MEAN_MOTION_DDOT":0},{"OBJECT_NAME":"STARLINK-36997","OBJECT_ID":"2026-054S","EPOCH":"2026-04-13T06:05:25.205280","MEAN_MOTION":15.75263743,"ECCENTRICITY":8.715e-5,"INCLINATION":53.1582,"RA_OF_ASC_NODE":139.9624,"ARG_OF_PERICENTER":46.8543,"MEAN_ANOMALY":313.255,"EPHEMERIS_TYPE":0,"CLASSIFICATION_TYPE":"U","NORAD_CAT_ID":68248,"ELEMENT_SET_NO":999,"REV_AT_EPOCH":423,"BSTAR":0.00080101874,"MEAN_MOTION_DOT":0.00124097,"MEAN_MOTION_DDOT":0},{"OBJECT_NAME":"STARLINK-37141","OBJECT_ID":"2026-054T","EPOCH":"2026-04-12T09:58:07.100544","MEAN_MOTION":15.75228332,"ECCENTRICITY":0.00024959,"INCLINATION":53.1584,"RA_OF_ASC_NODE":143.9711,"ARG_OF_PERICENTER":30.4436,"MEAN_ANOMALY":329.6729,"EPHEMERIS_TYPE":0,"CLASSIFICATION_TYPE":"U","NORAD_CAT_ID":68249,"ELEMENT_SET_NO":999,"REV_AT_EPOCH":410,"BSTAR":0.00098451402,"MEAN_MOTION_DOT":0.00152972,"MEAN_MOTION_DDOT":0},{"OBJECT_NAME":"STARLINK-37087","OBJECT_ID":"2026-054U","EPOCH":"2026-04-13T02:50:05.984448","MEAN_MOTION":15.75494786,"ECCENTRICITY":0.00018345,"INCLINATION":53.1559,"RA_OF_ASC_NODE":140.5343,"ARG_OF_PERICENTER":120.8067,"MEAN_ANOMALY":239.3134,"EPHEMERIS_TYPE":0,"CLASSIFICATION_TYPE":"U","NORAD_CAT_ID":68250,"ELEMENT_SET_NO":999,"REV_AT_EPOCH":421,"BSTAR":0.002754242,"MEAN_MOTION_DOT":0.00449772,"MEAN_MOTION_DDOT":0},{"OBJECT_NAME":"STARLINK-36274","OBJECT_ID":"2026-054V","EPOCH":"2026-04-13T05:59:21.454368","MEAN_MOTION":15.75262954,"ECCENTRICITY":0.00011155,"INCLINATION":53.1568,"RA_OF_ASC_NODE":139.9329,"ARG_OF_PERICENTER":48.84,"MEAN_ANOMALY":311.2716,"EPHEMERIS_TYPE":0,"CLASSIFICATION_TYPE":"U","NORAD_CAT_ID":68251,"ELEMENT_SET_NO":999,"REV_AT_EPOCH":423,"BSTAR":0.00066772601,"MEAN_MOTION_DOT":0.00103078,"MEAN_MOTION_DDOT":0},{"OBJECT_NAME":"STARLINK-37085","OBJECT_ID":"2026-054W","EPOCH":"2026-04-13T06:00:02.000160","MEAN_MOTION":15.7528501,"ECCENTRICITY":9.951e-5,"INCLINATION":53.1593,"RA_OF_ASC_NODE":139.3414,"ARG_OF_PERICENTER":77.3303,"MEAN_ANOMALY":212.3918,"EPHEMERIS_TYPE":0,"CLASSIFICATION_TYPE":"U","NORAD_CAT_ID":68252,"ELEMENT_SET_NO":999,"REV_AT_EPOCH":546,"BSTAR":-0.00065530709,"MEAN_MOTION_DOT":-0.00100108,"MEAN_MOTION_DDOT":0},{"OBJECT_NAME":"STARLINK-37086","OBJECT_ID":"2026-054X","EPOCH":"2026-04-13T06:00:02.000160","MEAN_MOTION":15.75289058,"ECCENTRICITY":0.0001176,"INCLINATION":53.1596,"RA_OF_ASC_NODE":139.3948,"ARG_OF_PERICENTER":89.3583,"MEAN_ANOMALY":174.6262,"EPHEMERIS_TYPE":0,"CLASSIFICATION_TYPE":"U","NORAD_CAT_ID":68253,"ELEMENT_SET_NO":999,"REV_AT_EPOCH":546,"BSTAR":-0.00086613198,"MEAN_MOTION_DOT":-0.00131649,"MEAN_MOTION_DDOT":0},{"OBJECT_NAME":"STARLINK-37084","OBJECT_ID":"2026-054Y","EPOCH":"2026-04-13T06:00:02.000160","MEAN_MOTION":15.75286655,"ECCENTRICITY":0.00011681,"INCLINATION":53.1592,"RA_OF_ASC_NODE":139.557,"ARG_OF_PERICENTER":104.1651,"MEAN_ANOMALY":80.7225,"EPHEMERIS_TYPE":0,"CLASSIFICATION_TYPE":"U","NORAD_CAT_ID":68254,"ELEMENT_SET_NO":999,"REV_AT_EPOCH":546,"BSTAR":-0.00080743245,"MEAN_MOTION_DOT":-0.00122883,"MEAN_MOTION_DDOT":0},{"OBJECT_NAME":"STARLINK-37075","OBJECT_ID":"2026-054Z","EPOCH":"2026-04-13T06:00:02.000160","MEAN_MOTION":15.76620267,"ECCENTRICITY":0.0001187,"INCLINATION":53.1597,"RA_OF_ASC_NODE":139.2902,"ARG_OF_PERICENTER":97.9561,"MEAN_ANOMALY":216.6581,"EPHEMERIS_TYPE":0,"CLASSIFICATION_TYPE":"U","NORAD_CAT_ID":68255,"ELEMENT_SET_NO":999,"REV_AT_EPOCH":546,"BSTAR":-0.011834604,"MEAN_MOTION_DOT":-0.01704935,"MEAN_MOTION_DDOT":0},{"OBJECT_NAME":"STARLINK-36333","OBJECT_ID":"2026-054AA","EPOCH":"2026-04-13T00:00:02.000160","MEAN_MOTION":15.75175912,"ECCENTRICITY":9.792e-5,"INCLINATION":53.1594,"RA_OF_ASC_NODE":140.6901,"ARG_OF_PERICENTER":95.8475,"MEAN_ANOMALY":162.0328,"EPHEMERIS_TYPE":0,"CLASSIFICATION_TYPE":"U","NORAD_CAT_ID":68256,"ELEMENT_SET_NO":999,"REV_AT_EPOCH":546,"BSTAR":0.0015225517,"MEAN_MOTION_DOT":0.002388,"MEAN_MOTION_DDOT":0},{"OBJECT_NAME":"STARLINK-36745","OBJECT_ID":"2026-054AB","EPOCH":"2026-04-13T02:43:33.857184","MEAN_MOTION":15.75376096,"ECCENTRICITY":0.00017731,"INCLINATION":53.1571,"RA_OF_ASC_NODE":140.504,"ARG_OF_PERICENTER":130.6001,"MEAN_ANOMALY":229.5174,"EPHEMERIS_TYPE":0,"CLASSIFICATION_TYPE":"U","NORAD_CAT_ID":68257,"ELEMENT_SET_NO":999,"REV_AT_EPOCH":421,"BSTAR":0.0017770634,"MEAN_MOTION_DOT":0.00282752,"MEAN_MOTION_DDOT":0},{"OBJECT_NAME":"STARLINK-36890","OBJECT_ID":"2026-054AC","EPOCH":"2026-04-13T13:39:24.876288","MEAN_MOTION":15.80948127,"ECCENTRICITY":0.0001156,"INCLINATION":53.1575,"RA_OF_ASC_NODE":137.6343,"ARG_OF_PERICENTER":115.03,"MEAN_ANOMALY":245.0843,"EPHEMERIS_TYPE":0,"CLASSIFICATION_TYPE":"U","NORAD_CAT_ID":68258,"ELEMENT_SET_NO":999,"REV_AT_EPOCH":429,"BSTAR":0.00097648,"MEAN_MOTION_DOT":0.00197171,"MEAN_MOTION_DDOT":0},{"OBJECT_NAME":"STARLINK-36323","OBJECT_ID":"2026-054AD","EPOCH":"2026-04-13T06:51:02.184480","MEAN_MOTION":15.75248139,"ECCENTRICITY":0.00012911,"INCLINATION":53.1588,"RA_OF_ASC_NODE":139.4356,"ARG_OF_PERICENTER":43.3853,"MEAN_ANOMALY":316.7269,"EPHEMERIS_TYPE":0,"CLASSIFICATION_TYPE":"U","NORAD_CAT_ID":68259,"ELEMENT_SET_NO":999,"REV_AT_EPOCH":424,"BSTAR":0.0010669507,"MEAN_MOTION_DOT":0.00166229,"MEAN_MOTION_DDOT":0}]
